[{"OBJECT_NAME":"ICEYE-X56","OBJECT_ID":"2025-135AY","EPOCH":"2026-03-09T22:14:12.015744","MEAN_MOTION":14.94928364,"ECCENTRICITY":7.492e-5,"INCLINATION":97.761,"RA_OF_ASC_NODE":184.784,"ARG_OF_PERICENTER":334.2074,"MEAN_ANOMALY":25.9109,"EPHEMERIS_TYPE":0,"CLASSIFICATION_TYPE":"U","NORAD_CAT_ID":64574,"ELEMENT_SET_NO":999,"REV_AT_EPOCH":3909,"BSTAR":0.000532844,"MEAN_MOTION_DOT":5.76e-5,"MEAN_MOTION_DDOT":0},{"OBJECT_NAME":"LEMUR-2-SEJONG-2","OBJECT_ID":"2025-135BL","EPOCH":"2026-03-09T22:16:44.567904","MEAN_MOTION":14.95708739,"ECCENTRICITY":0.00031113,"INCLINATION":97.7555,"RA_OF_ASC_NODE":184.7737,"ARG_OF_PERICENTER":303.2241,"MEAN_ANOMALY":56.8681,"EPHEMERIS_TYPE":0,"CLASSIFICATION_TYPE":"U","NORAD_CAT_ID":64586,"ELEMENT_SET_NO":999,"REV_AT_EPOCH":3910,"BSTAR":0.00071638591,"MEAN_MOTION_DOT":7.923e-5,"MEAN_MOTION_DDOT":0}]
